{
  "norad_id": 51743,
  "name": "STARLINK-3512",
  "history": [
    {
      "epoch": "2026-03-28T15:45:27.973728Z",
      "apogee_km": 540.6283578772754,
      "perigee_km": 538.8435466555902,
      "latitude_deg": 1.4433328506903962e-06,
      "longitude_deg": 161.45825940366745,
      "height_km": 540.4880599164799,
      "semi_major_axis_km": 6917.872952266433,
      "eccentricity": 0.000129,
      "inclination_deg": 53.2167,
      "raan_deg": 223.8987,
      "arg_perigee_deg": 80.737,
      "mean_anomaly_deg": 279.3768,
      "mean_motion_rev_day": 15.08842433
    },
    {
      "epoch": "2026-03-30T01:08:33.993888Z",
      "apogee_km": 540.4328215023161,
      "perigee_km": 539.0699974856452,
      "latitude_deg": 1.0379529102257513e-05,
      "longitude_deg": 13.067909016095161,
      "height_km": 540.445522222568,
      "semi_major_axis_km": 6917.88840949398,
      "eccentricity": 9.85e-05,
      "inclination_deg": 53.2176,
      "raan_deg": 217.6545,
      "arg_perigee_deg": 72.7396,
      "mean_anomaly_deg": 287.3704,
      "mean_motion_rev_day": 15.08837376
    },
    {
      "epoch": "2026-03-30T01:08:33.994752Z",
      "apogee_km": 540.4327523234324,
      "perigee_km": 539.0700666645298,
      "latitude_deg": 1.1260947079962622e-05,
      "longitude_deg": 13.06790606158754,
      "height_km": 540.4455427486668,
      "semi_major_axis_km": 6917.88840949398,
      "eccentricity": 9.849e-05,
      "inclination_deg": 53.2176,
      "raan_deg": 217.6545,
      "arg_perigee_deg": 72.7396,
      "mean_anomaly_deg": 287.3704,
      "mean_motion_rev_day": 15.08837376
    },
    {
      "epoch": "2026-03-30T15:27:02.557440Z",
      "apogee_km": 540.6197010657606,
      "perigee_km": 538.884279433666,
      "latitude_deg": 2.63223766395247e-05,
      "longitude_deg": 155.18680077557315,
      "height_km": 540.5374037577773,
      "semi_major_axis_km": 6917.888990249713,
      "eccentricity": 0.00012543,
      "inclination_deg": 53.2182,
      "raan_deg": 214.98,
      "arg_perigee_deg": 82.6814,
      "mean_anomaly_deg": 277.4321,
      "mean_motion_rev_day": 15.08837186
    },
    {
      "epoch": "2026-03-30T17:02:25.678752Z",
      "apogee_km": 540.6246316779752,
      "perigee_km": 538.8775882146901,
      "latitude_deg": 3.45549822232623e-05,
      "longitude_deg": 130.9776792174636,
      "height_km": 540.5332117456423,
      "semi_major_axis_km": 6917.888109946332,
      "eccentricity": 0.00012627,
      "inclination_deg": 53.2181,
      "raan_deg": 214.6825,
      "arg_perigee_deg": 82.5128,
      "mean_anomaly_deg": 277.6008,
      "mean_motion_rev_day": 15.08837474
    },
    {
      "epoch": "2026-03-31T00:59:21.393312Z",
      "apogee_km": 540.6083637669499,
      "perigee_km": 538.8954944681009,
      "latitude_deg": -1.61999784732187e-05,
      "longitude_deg": 9.932651863259451,
      "height_km": 540.558607811252,
      "semi_major_axis_km": 6917.888929117526,
      "eccentricity": 0.0001238,
      "inclination_deg": 53.2175,
      "raan_deg": 213.1961,
      "arg_perigee_deg": 84.0204,
      "mean_anomaly_deg": 276.0929,
      "mean_motion_rev_day": 15.08837206
    },
    {
      "epoch": "2026-04-01T07:11:41.574336Z",
      "apogee_km": 540.639143268394,
      "perigee_km": 538.8958313375933,
      "latitude_deg": 3.8297529348394995e-05,
      "longitude_deg": -90.04199365469495,
      "height_km": 540.660485518648,
      "semi_major_axis_km": 6917.904487302993,
      "eccentricity": 0.000126,
      "inclination_deg": 53.2184,
      "raan_deg": 207.546,
      "arg_perigee_deg": 89.8065,
      "mean_anomaly_deg": 270.3072,
      "mean_motion_rev_day": 15.08832116
    },
    {
      "epoch": "2026-04-02T16:34:46.349472Z",
      "apogee_km": 540.808644134825,
      "perigee_km": 538.6133342539333,
      "latitude_deg": -2.969187824163597e-05,
      "longitude_deg": 121.57160148332342,
      "height_km": 540.5189759584905,
      "semi_major_axis_km": 6917.847989194379,
      "eccentricity": 0.00015867,
      "inclination_deg": 53.2183,
      "raan_deg": 201.3006,
      "arg_perigee_deg": 85.427,
      "mean_anomaly_deg": 274.6903,
      "mean_motion_rev_day": 15.088506
    },
    {
      "epoch": "2026-04-03T13:14:49.141824Z",
      "apogee_km": 540.8398613621757,
      "perigee_km": 538.7271284430326,
      "latitude_deg": -4.6100606488755324e-05,
      "longitude_deg": 166.8439729621888,
      "height_km": 540.7643924817813,
      "semi_major_axis_km": 6917.920494902604,
      "eccentricity": 0.0001527,
      "inclination_deg": 53.2185,
      "raan_deg": 197.4334,
      "arg_perigee_deg": 94.6316,
      "mean_anomaly_deg": 265.485,
      "mean_motion_rev_day": 15.08826879
    },
    {
      "epoch": "2026-04-04T06:44:03.158304Z",
      "apogee_km": 540.8333311965798,
      "perigee_km": 538.6665106552082,
      "latitude_deg": 1.692326301647587e-05,
      "longitude_deg": -99.45455736497831,
      "height_km": 540.8372791142235,
      "semi_major_axis_km": 6917.886920925894,
      "eccentricity": 0.00015661,
      "inclination_deg": 53.2165,
      "raan_deg": 194.1614,
      "arg_perigee_deg": 100.2082,
      "mean_anomaly_deg": 259.9087,
      "mean_motion_rev_day": 15.08837863
    },
    {
      "epoch": "2026-04-05T12:56:23.098272Z",
      "apogee_km": 540.8061494440408,
      "perigee_km": 538.7592753595363,
      "latitude_deg": 4.682054126871399e-05,
      "longitude_deg": 160.57538261229615,
      "height_km": 540.7329393787363,
      "semi_major_axis_km": 6917.919712401788,
      "eccentricity": 0.00014794,
      "inclination_deg": 53.217,
      "raan_deg": 188.5149,
      "arg_perigee_deg": 93.066,
      "mean_anomaly_deg": 267.0502,
      "mean_motion_rev_day": 15.08827135
    },
    {
      "epoch": "2026-04-06T06:25:37.138080Z",
      "apogee_km": 540.7971119565418,
      "perigee_km": 538.6621199615238,
      "latitude_deg": 6.944425494842611e-06,
      "longitude_deg": -105.72322287845853,
      "height_km": 540.6521489065441,
      "semi_major_axis_km": 6917.866615959032,
      "eccentricity": 0.00015431,
      "inclination_deg": 53.2177,
      "raan_deg": 185.243,
      "arg_perigee_deg": 91.452,
      "mean_anomaly_deg": 268.6649,
      "mean_motion_rev_day": 15.08844506
    },
    {
      "epoch": "2026-04-07T11:02:33.680256Z",
      "apogee_km": 540.7565653935899,
      "perigee_km": 538.7412468714147,
      "latitude_deg": 3.5403279082872494e-06,
      "longitude_deg": 178.51467373173728,
      "height_km": 540.612730511779,
      "semi_major_axis_km": 6917.885906132502,
      "eccentricity": 0.00014566,
      "inclination_deg": 53.2176,
      "raan_deg": 179.8917,
      "arg_perigee_deg": 88.1933,
      "mean_anomaly_deg": 271.9226,
      "mean_motion_rev_day": 15.08838195
    },
    {
      "epoch": "2026-04-08T14:04:07.389696Z",
      "apogee_km": 540.78257043551,
      "perigee_km": 538.7286481198162,
      "latitude_deg": -2.345233711017489e-05,
      "longitude_deg": 126.961274639782,
      "height_km": 540.7612258169617,
      "semi_major_axis_km": 6917.892609277663,
      "eccentricity": 0.00014845,
      "inclination_deg": 53.2175,
      "raan_deg": 174.8387,
      "arg_perigee_deg": 96.1523,
      "mean_anomaly_deg": 263.9638,
      "mean_motion_rev_day": 15.08836002
    },
    {
      "epoch": "2026-04-09T17:05:41.266752Z",
      "apogee_km": 540.6410405442757,
      "perigee_km": 538.9087954000142,
      "latitude_deg": 7.118651316678405e-06,
      "longitude_deg": 75.40101807886198,
      "height_km": 540.5877181070401,
      "semi_major_axis_km": 6917.911917972145,
      "eccentricity": 0.0001252,
      "inclination_deg": 53.2173,
      "raan_deg": 169.7795,
      "arg_perigee_deg": 84.4977,
      "mean_anomaly_deg": 275.6158,
      "mean_motion_rev_day": 15.08829685
    },
    {
      "epoch": "2026-04-10T10:34:56.216352Z",
      "apogee_km": 540.6331987363019,
      "perigee_km": 538.9438413243106,
      "latitude_deg": -3.0858130902469703e-06,
      "longitude_deg": 169.0994330724231,
      "height_km": 540.584816139127,
      "semi_major_axis_km": 6917.925520030306,
      "eccentricity": 0.0001221,
      "inclination_deg": 53.2173,
      "raan_deg": 166.5084,
      "arg_perigee_deg": 83.2283,
      "mean_anomaly_deg": 276.8848,
      "mean_motion_rev_day": 15.08825235
    },
    {
      "epoch": "2026-04-11T10:25:43.076640Z",
      "apogee_km": 540.6999499873382,
      "perigee_km": 538.8168988528123,
      "latitude_deg": 2.6689865954341713e-05,
      "longitude_deg": 165.9644672027346,
      "height_km": 540.5288924454177,
      "semi_major_axis_km": 6917.895424420075,
      "eccentricity": 0.0001361,
      "inclination_deg": 53.2173,
      "raan_deg": 162.048,
      "arg_perigee_deg": 82.356,
      "mean_anomaly_deg": 277.7587,
      "mean_motion_rev_day": 15.08835081
    },
    {
      "epoch": "2026-04-12T13:27:16.331616Z",
      "apogee_km": 540.7060293532559,
      "perigee_km": 538.7832733270816,
      "latitude_deg": 1.97403086645642e-05,
      "longitude_deg": 114.41198402519133,
      "height_km": 540.4120048400099,
      "semi_major_axis_km": 6917.881651340168,
      "eccentricity": 0.00013897,
      "inclination_deg": 53.2166,
      "raan_deg": 156.994,
      "arg_perigee_deg": 76.2637,
      "mean_anomaly_deg": 283.851,
      "mean_motion_rev_day": 15.08839587
    },
    {
      "epoch": "2026-04-14T19:30:22.322304Z",
      "apogee_km": 540.6430174323668,
      "perigee_km": 538.8236175388683,
      "latitude_deg": 2.4840043540429514e-05,
      "longitude_deg": 11.30600524321993,
      "height_km": 540.3188882842128,
      "semi_major_axis_km": 6917.870317485617,
      "eccentricity": 0.0001315,
      "inclination_deg": 53.2157,
      "raan_deg": 146.8828,
      "arg_perigee_deg": 70.0675,
      "mean_anomaly_deg": 290.0459,
      "mean_motion_rev_day": 15.08843295
    },
    {
      "epoch": "2026-04-15T09:48:50.922144Z",
      "apogee_km": 540.6833337380476,
      "perigee_km": 538.8135676584325,
      "latitude_deg": -2.6179754614981164e-05,
      "longitude_deg": 153.42289601114473,
      "height_km": 540.3553568667534,
      "semi_major_axis_km": 6917.88545069824,
      "eccentricity": 0.00013514,
      "inclination_deg": 53.216,
      "raan_deg": 144.2065,
      "arg_perigee_deg": 72.0085,
      "mean_anomaly_deg": 288.1054,
      "mean_motion_rev_day": 15.08838344
    },
    {
      "epoch": "2026-04-16T19:11:56.721984Z",
      "apogee_km": 540.7301191453189,
      "perigee_km": 538.7682066295238,
      "latitude_deg": -3.582497216283136e-05,
      "longitude_deg": 5.033654588189735,
      "height_km": 540.4008587787911,
      "semi_major_axis_km": 6917.886162887421,
      "eccentricity": 0.0001418,
      "inclination_deg": 53.2166,
      "raan_deg": 137.9625,
      "arg_perigee_deg": 75.6023,
      "mean_anomaly_deg": 284.5126,
      "mean_motion_rev_day": 15.08838111
    }
  ]
}